LEMUR-2-VALHALLA        
1 58900U 24022B   26199.84593803  .00008827  00000+0  21908-3 0  9996
2 58900  97.4078  50.2340 0008843  11.5023 348.6423 15.40554967137140
LEMUR-2-CAEL            
1 58903U 24022E   26199.11444021  .00009726  00000+0  23070-3 0  9997
2 58903  97.4058  50.4848 0006785 358.7316   1.3912 15.41915567137100
LEMUR-2-JOHNNYTRUONG    
1 59146U 24043BA  26199.86792838  .00024814  00000+0  27716-3 0  9990
2 59146  97.5405 353.5944 0003851  84.0742 276.0954 15.62759665132980
LEMUR-2-TOMATOKECHUP    
1 60471U 24149D   26199.76126573  .00005641  00000+0  16003-3 0  9990
2 60471  97.3787 281.9009 0003406 115.5350 244.6246 15.36625314107016
LEMUR-2-STELLA          
1 60533U 24149BT  26199.77882273  .00006185  00000+0  35988-3 0  9993
2 60533  97.6731 282.3852 0001246 124.1125 236.0223 15.12413075105273
LEMUR-2-MARHISYAM       
1 60536U 24149BW  26199.77114108  .00005065  00000+0  30038-3 0  9998
2 60536  97.6874 282.8575 0002282  64.0829 296.0636 15.11816351105250
LEMUR-2-AHMED-ASRAR     
1 60576U 24149DN  26199.77403205  .00006127  00000+0  34740-3 0  9995
2 60576  97.7000 285.0778 0001528 189.1526 170.9677 15.13352101105346
LEMUR-2-LLOYD           
1 60577U 24149DP  26199.79386125  .00004665  00000+0  29276-3 0  9992
2 60577  97.6733 280.9510 0004387  62.6634 297.5041 15.09785247105165
LEMUR-2-SQUIRRELCOMM    
1 60578U 24149DQ  26199.78798889  .00002844  00000+0  19173-3 0  9998
2 60578  97.6700 280.6052 0004020 309.7774  50.3099 15.07465103105164
LEMUR-2-SIERRINI        
1 60579U 24149DR  26199.80065323  .00005353  00000+0  31941-3 0  9997
2 60579  97.6830 282.5451 0006227  81.6935 278.5001 15.11553194105237
LEMUR-2-WILSON          
1 62694U 25009CP  26199.74853367  .00000961  00000+0  92426-4 0  9995
2 62694  97.7017 277.6599 0001729 303.7039  56.4017 14.95282787 82072
LEMUR-2-STAR-FOX        
1 62696U 25009CR  26199.78884716  .00003771  00000+0  28579-3 0  9992
2 62696  97.6898 281.1703 0001823  28.2568 331.8756 15.02867156 82302
LEMUR-2-ARIANNA         
1 62699U 25009CU  26199.78730816  .00004084  00000+0  30905-3 0  9990
2 62699  97.6840 280.9185 0002141  37.2363 322.9011 15.02870725 82301
LEMUR-2-ALISIA          
1 62706U 25009DB  26199.75888045  .00003677  00000+0  27627-3 0  9998
2 62706  97.6963 281.7223 0004736 119.1636 241.0064 15.03204115104908
LEMUR-2-ROUNDTRIPPER    
1 62711U 25009DG  26199.76156273  .00003847  00000+0  28090-3 0  9990
2 62711  97.7243 282.4037 0004485  57.6455 302.5204 15.04262462 82378
LEMUR-2-MYNAMEISJEFF    
1 62712U 25009DH  26199.76007179  .00003875  00000+0  28304-3 0  9990
2 62712  97.7292 282.8025 0004339  90.3716 269.8007 15.04253607 82373
